{
    "links": {
        "self": "http://www.neowsapp.com/rest/v1/neo/3251515?api_key=iIulBulltgU6a56xZRHN4H3l9WmuAYTsLGpBGhQ2"
    },
    "id": "3251515",
    "neo_reference_id": "3251515",
    "name": "(2004 RB11)",
    "designation": "2004 RB11",
    "nasa_jpl_url": "http://ssd.jpl.nasa.gov/sbdb.cgi?sstr=3251515",
    "absolute_magnitude_h": 23.7,
    "estimated_diameter": {
        "kilometers": {
            "estimated_diameter_min": 0.0483676488,
            "estimated_diameter_max": 0.1081533507
        },
        "meters": {
            "estimated_diameter_min": 48.3676488219,
            "estimated_diameter_max": 108.1533506775
        },
        "miles": {
            "estimated_diameter_min": 0.0300542543,
            "estimated_diameter_max": 0.0672033557
        },
        "feet": {
            "estimated_diameter_min": 158.6865169607,
            "estimated_diameter_max": 354.8338390368
        }
    },
    "is_potentially_hazardous_asteroid": false,
    "close_approach_data": [
        {
            "close_approach_date": "2001-07-23",
            "close_approach_date_full": "2001-Jul-23 20:50",
            "epoch_date_close_approach": 995921400000,
            "relative_velocity": {
                "kilometers_per_second": "19.5755089258",
                "kilometers_per_hour": "70471.8321330535",
                "miles_per_hour": "43788.4559162298"
            },
            "miss_distance": {
                "astronomical": "0.4547559603",
                "lunar": "176.9000685567",
                "kilometers": "68030523.030684561",
                "miles": "42272206.8229905018"
            },
            "orbiting_body": "Earth"
        },
        {
            "close_approach_date": "2004-09-05",
            "close_approach_date_full": "2004-Sep-05 11:07",
            "epoch_date_close_approach": 1094382420000,
            "relative_velocity": {
                "kilometers_per_second": "6.8016818255",
                "kilometers_per_hour": "24486.0545718705",
                "miles_per_hour": "15214.6820755047"
            },
            "miss_distance": {
                "astronomical": "0.0428185607",
                "lunar": "16.6564201123",
                "kilometers": "6405565.477185709",
                "miles": "3980233.8216284242"
            },
            "orbiting_body": "Earth"
        },
        {
            "close_approach_date": "2007-11-01",
            "close_approach_date_full": "2007-Nov-01 11:34",
            "epoch_date_close_approach": 1193916840000,
            "relative_velocity": {
                "kilometers_per_second": "16.3489366006",
                "kilometers_per_hour": "58856.1717620095",
                "miles_per_hour": "36570.9362817886"
            },
            "miss_distance": {
                "astronomical": "0.3487438563",
                "lunar": "135.6613601007",
                "kilometers": "52171338.078066081",
                "miles": "32417766.2499146778"
            },
            "orbiting_body": "Earth"
        }
    ],
    "orbital_data": {
        "orbit_id": "14",
        "orbit_determination_date": "2017-04-06 09:12:21",
        "first_observation_date": "2004-09-08",
        "last_observation_date": "2004-11-17",
        "data_arc_in_days": 70,
        "observations_used": 63,
        "orbit_uncertainty": "6",
        "minimum_orbit_intersection": ".0375397",
        "jupiter_tisserand_invariant": "3.561",
        "epoch_osculation": "2459000.5",
        "eccentricity": ".5071615726429716",
        "semi_major_axis": "2.111311768701916",
        "inclination": "3.208050634547428",
        "ascending_node_longitude": "161.6903314518312",
        "orbital_period": "1120.539007825822",
        "perihelion_distance": "1.040535571747438",
        "perihelion_argument": "194.0986189253559",
        "aphelion_distance": "3.182087965656394",
        "perihelion_time": "2458867.330151986201",
        "mean_anomaly": "42.78400390361033",
        "mean_motion": ".3212739560923513",
        "equinox": "J2000",
        "orbit_class": {
            "orbit_class_type": "AMO",
            "orbit_class_description": "Near-Earth asteroid orbits similar to that of 1221 Amor",
            "orbit_class_range": "1.017 AU < q (perihelion) < 1.3 AU"
        }
    },
    "is_sentry_object": false
}